STARLINK-4793           
1 53867U 22114BB  26068.77219975  .00000529  00000+0  51307-4 0  9993
2 53867  53.2160 273.8145 0001557  83.5223 276.5946 15.08848836193260
LEMUR-2-ESPERANZA       
1 63352U 25061B   26068.87489603  .00006090  00000+0  34973-3 0  9993
2 63352  97.5568  45.1407 0016949 244.8770 115.0702 15.12770807 52576
